[{"OBJECT_NAME":"STARLINK-5935","OBJECT_ID":"2023-064F","EPOCH":"2026-03-09T15:02:27.865824","MEAN_MOTION":14.98320359,"ECCENTRICITY":0.0003134,"INCLINATION":70.0008,"RA_OF_ASC_NODE":144.7393,"ARG_OF_PERICENTER":269.2573,"MEAN_ANOMALY":90.8227,"EPHEMERIS_TYPE":0,"CLASSIFICATION_TYPE":"U","NORAD_CAT_ID":56453,"ELEMENT_SET_NO":999,"REV_AT_EPOCH":15523,"BSTAR":-9.2054e-5,"MEAN_MOTION_DOT":-1.191e-5,"MEAN_MOTION_DDOT":0},{"OBJECT_NAME":"ESSAIM-3","OBJECT_ID":"2004-049E","EPOCH":"2026-03-09T17:57:07.382304","MEAN_MOTION":14.96054296,"ECCENTRICITY":0.00013371,"INCLINATION":98.2193,"RA_OF_ASC_NODE":0.6383,"ARG_OF_PERICENTER":147.2664,"MEAN_ANOMALY":212.8639,"EPHEMERIS_TYPE":0,"CLASSIFICATION_TYPE":"U","NORAD_CAT_ID":28496,"ELEMENT_SET_NO":999,"REV_AT_EPOCH":14785,"BSTAR":0.00036464987,"MEAN_MOTION_DOT":4.033e-5,"MEAN_MOTION_DDOT":0}]
